[{"OBJECT_NAME":"COSMOS 2547","OBJECT_ID":"2020-075A","EPOCH":"2026-02-01T07:51:34.873344","MEAN_MOTION":2.13099981,"ECCENTRICITY":0.00062264,"INCLINATION":64.5994,"RA_OF_ASC_NODE":197.0063,"ARG_OF_PERICENTER":227.3748,"MEAN_ANOMALY":132.5489,"EPHEMERIS_TYPE":0,"CLASSIFICATION_TYPE":"U","NORAD_CAT_ID":46805,"ELEMENT_SET_NO":999,"REV_AT_EPOCH":4101,"BSTAR":0,"MEAN_MOTION_DOT":3.9e-7,"MEAN_MOTION_DDOT":0},{"OBJECT_NAME":"GPS BIII-4","OBJECT_ID":"2020-078A","EPOCH":"2026-02-01T21:23:28.369248","MEAN_MOTION":2.00565922,"ECCENTRICITY":0.00666996,"INCLINATION":54.0074,"RA_OF_ASC_NODE":216.2632,"ARG_OF_PERICENTER":203.6744,"MEAN_ANOMALY":326.5432,"EPHEMERIS_TYPE":0,"CLASSIFICATION_TYPE":"U","NORAD_CAT_ID":46826,"ELEMENT_SET_NO":999,"REV_AT_EPOCH":3879,"BSTAR":0,"MEAN_MOTION_DOT":3.8e-7,"MEAN_MOTION_DDOT":0},{"OBJECT_NAME":"GSAT0223 (GALILEO 27)","OBJECT_ID":"2021-116A","EPOCH":"2026-02-01T04:46:08.796288","MEAN_MOTION":1.70475316,"ECCENTRICITY":0.0003507,"INCLINATION":57.2056,"RA_OF_ASC_NODE":345.3501,"ARG_OF_PERICENTER":271.6863,"MEAN_ANOMALY":269.0806,"EPHEMERIS_TYPE":0,"CLASSIFICATION_TYPE":"U","NORAD_CAT_ID":49809,"ELEMENT_SET_NO":999,"REV_AT_EPOCH":2586,"BSTAR":0,"MEAN_MOTION_DOT":-1.03e-6,"MEAN_MOTION_DDOT":0},{"OBJECT_NAME":"GSAT0224 (GALILEO 28)","OBJECT_ID":"2021-116B","EPOCH":"2026-02-01T13:52:45.939936","MEAN_MOTION":1.70475349,"ECCENTRICITY":0.0002961,"INCLINATION":57.2061,"RA_OF_ASC_NODE":345.3386,"ARG_OF_PERICENTER":281.6259,"MEAN_ANOMALY":244.7077,"EPHEMERIS_TYPE":0,"CLASSIFICATION_TYPE":"U","NORAD_CAT_ID":49810,"ELEMENT_SET_NO":999,"REV_AT_EPOCH":2589,"BSTAR":0,"MEAN_MOTION_DOT":-1.04e-6,"MEAN_MOTION_DDOT":0},{"OBJECT_NAME":"GOES 18","OBJECT_ID":"2022-021A","EPOCH":"2026-02-01T18:47:38.530176","MEAN_MOTION":1.00270999,"ECCENTRICITY":6.872e-5,"INCLINATION":0.0053,"RA_OF_ASC_NODE":163.5347,"ARG_OF_PERICENTER":195.2213,"MEAN_ANOMALY":278.1114,"EPHEMERIS_TYPE":0,"CLASSIFICATION_TYPE":"U","NORAD_CAT_ID":51850,"ELEMENT_SET_NO":999,"REV_AT_EPOCH":523,"BSTAR":0,"MEAN_MOTION_DOT":8.7e-7,"MEAN_MOTION_DDOT":0},{"OBJECT_NAME":"COSMOS 2557 (706K)","OBJECT_ID":"2022-075A","EPOCH":"2026-02-01T11:49:25.641696","MEAN_MOTION":2.13101525,"ECCENTRICITY":0.00126209,"INCLINATION":64.3788,"RA_OF_ASC_NODE":319.2674,"ARG_OF_PERICENTER":281.9196,"MEAN_ANOMALY":77.9625,"EPHEMERIS_TYPE":0,"CLASSIFICATION_TYPE":"U","NORAD_CAT_ID":52984,"ELEMENT_SET_NO":999,"REV_AT_EPOCH":2782,"BSTAR":0,"MEAN_MOTION_DOT":-6.6e-7,"MEAN_MOTION_DDOT":0},{"OBJECT_NAME":"METEOSAT-12 (MTG-I1)","OBJECT_ID":"2022-170C","EPOCH":"2026-02-01T22:02:39.259680","MEAN_MOTION":1.00269252,"ECCENTRICITY":0.0002291,"INCLINATION":0.7061,"RA_OF_ASC_NODE":24.3747,"ARG_OF_PERICENTER":267.9192,"MEAN_ANOMALY":170.1476,"EPHEMERIS_TYPE":0,"CLASSIFICATION_TYPE":"U","NORAD_CAT_ID":54743,"ELEMENT_SET_NO":999,"REV_AT_EPOCH":1162,"BSTAR":0,"MEAN_MOTION_DOT":-1.8e-7,"MEAN_MOTION_DDOT":0},{"OBJECT_NAME":"METEOR-M2 3","OBJECT_ID":"2023-091A","EPOCH":"2026-02-01T23:36:18.991296","MEAN_MOTION":14.24033614,"ECCENTRICITY":0.00037448,"INCLINATION":98.6292,"RA_OF_ASC_NODE":90.6084,"ARG_OF_PERICENTER":187.9365,"MEAN_ANOMALY":172.1755,"EPHEMERIS_TYPE":0,"CLASSIFICATION_TYPE":"U","NORAD_CAT_ID":57166,"ELEMENT_SET_NO":999,"REV_AT_EPOCH":13527,"BSTAR":2.4604757e-5,"MEAN_MOTION_DOT":1.3e-7,"MEAN_MOTION_DDOT":0},{"OBJECT_NAME":"COSMOS 2569 (703K)","OBJECT_ID":"2023-114A","EPOCH":"2026-02-01T04:03:14.967936","MEAN_MOTION":2.13103948,"ECCENTRICITY":0.00123259,"INCLINATION":65.2218,"RA_OF_ASC_NODE":77.2085,"ARG_OF_PERICENTER":289.3491,"MEAN_ANOMALY":70.5969,"EPHEMERIS_TYPE":0,"CLASSIFICATION_TYPE":"U","NORAD_CAT_ID":57517,"ELEMENT_SET_NO":999,"REV_AT_EPOCH":1936,"BSTAR":0,"MEAN_MOTION_DOT":1.2e-7,"MEAN_MOTION_DDOT":0},{"OBJECT_NAME":"METEOR-M2 4","OBJECT_ID":"2024-039A","EPOCH":"2026-02-01T23:38:52.700352","MEAN_MOTION":14.22411185,"ECCENTRICITY":0.00066792,"INCLINATION":98.6841,"RA_OF_ASC_NODE":354.1104,"ARG_OF_PERICENTER":192.7295,"MEAN_ANOMALY":167.3716,"EPHEMERIS_TYPE":0,"CLASSIFICATION_TYPE":"U","NORAD_CAT_ID":59051,"ELEMENT_SET_NO":999,"REV_AT_EPOCH":10004,"BSTAR":3.2666896e-5,"MEAN_MOTION_DOT":2.9e-7,"MEAN_MOTION_DDOT":0},{"OBJECT_NAME":"GSAT0225 (GALILEO 29)","OBJECT_ID":"2024-079A","EPOCH":"2026-02-01T07:41:36.981024","MEAN_MOTION":1.70474844,"ECCENTRICITY":0.00020951,"INCLINATION":55.0299,"RA_OF_ASC_NODE":104.8785,"ARG_OF_PERICENTER":233.0448,"MEAN_ANOMALY":127.8661,"EPHEMERIS_TYPE":0,"CLASSIFICATION_TYPE":"U","NORAD_CAT_ID":59598,"ELEMENT_SET_NO":999,"REV_AT_EPOCH":1100,"BSTAR":0,"MEAN_MOTION_DOT":-2.1e-7,"MEAN_MOTION_DDOT":0},{"OBJECT_NAME":"GSAT0227 (GALILEO 30)","OBJECT_ID":"2024-079C","EPOCH":"2026-01-31T21:59:01.751136","MEAN_MOTION":1.7047484,"ECCENTRICITY":0.00010511,"INCLINATION":55.0249,"RA_OF_ASC_NODE":104.8889,"ARG_OF_PERICENTER":122.1563,"MEAN_ANOMALY":237.9055,"EPHEMERIS_TYPE":0,"CLASSIFICATION_TYPE":"U","NORAD_CAT_ID":59600,"ELEMENT_SET_NO":999,"REV_AT_EPOCH":1104,"BSTAR":0,"MEAN_MOTION_DOT":-2.2e-7,"MEAN_MOTION_DDOT":0},{"OBJECT_NAME":"GSAT0232 (GALILEO 32)","OBJECT_ID":"2024-167A","EPOCH":"2026-01-10T19:19:07.147776","MEAN_MOTION":1.70473658,"ECCENTRICITY":0.00017712,"INCLINATION":55.2321,"RA_OF_ASC_NODE":225.6317,"ARG_OF_PERICENTER":188.3607,"MEAN_ANOMALY":9.6826,"EPHEMERIS_TYPE":0,"CLASSIFICATION_TYPE":"U","NORAD_CAT_ID":61182,"ELEMENT_SET_NO":999,"REV_AT_EPOCH":819,"BSTAR":0,"MEAN_MOTION_DOT":6.7e-7,"MEAN_MOTION_DDOT":0},{"OBJECT_NAME":"GSAT0226 (GALILEO 31)","OBJECT_ID":"2024-167B","EPOCH":"2026-02-01T07:58:57.973152","MEAN_MOTION":1.70473843,"ECCENTRICITY":0.00017258,"INCLINATION":55.2264,"RA_OF_ASC_NODE":225.0451,"ARG_OF_PERICENTER":112.3399,"MEAN_ANOMALY":90.4045,"EPHEMERIS_TYPE":0,"CLASSIFICATION_TYPE":"U","NORAD_CAT_ID":61183,"ELEMENT_SET_NO":999,"REV_AT_EPOCH":853,"BSTAR":0,"MEAN_MOTION_DOT":5.8e-7,"MEAN_MOTION_DDOT":0}]
