COSMOS 2547 [GLONASS-K] 
1 46805U 20075A   26032.32748696  .00000039  00000+0  00000+0 0  9995
2 46805  64.5994 197.0063 0006226 227.3748 132.5489  2.13099981 41017
NAVSTAR 80 (USA 309)    
1 46826U 20078A   26032.89130057  .00000038  00000+0  00000+0 0  9998
2 46826  54.0074 216.2632 0066699 203.6744 326.5432  2.00565922 38795
GSAT0223 (GALILEO 27)   
1 49809U 21116A   26032.19871292 -.00000103  00000+0  00000+0 0  9996
2 49809  57.2056 345.3501 0003507 271.6863 269.0806  1.70475316 25862
GSAT0224 (GALILEO 28)   
1 49810U 21116B   26032.57830949 -.00000104  00000+0  00000+0 0  9995
2 49810  57.2061 345.3386 0002961 281.6259 244.7077  1.70475349 25893
GOES 18                 
1 51850U 22021A   26032.78308484  .00000087  00000+0  00000+0 0  9994
2 51850   0.0053 163.5347 0000687 195.2213 278.1114  1.00270999  5233
COSMOS 2557 [GLONASS-K] 
1 52984U 22075A   26032.49265789 -.00000066  00000+0  00000+0 0  9998
2 52984  64.3788 319.2674 0012620 281.9196  77.9625  2.13101525 27820
METEOSAT-12 (MTG-I1)    
1 54743U 22170C   26032.91850995 -.00000018  00000+0  00000+0 0  9992
2 54743   0.7061  24.3747 0002291 267.9192 170.1476  1.00269252 11629
METEOR-M2 3             
1 57166U 23091A   26032.98355314  .00000013  00000+0  24605-4 0  9995
2 57166  98.6292  90.6084 0003744 187.9365 172.1755 14.24033614135271
COSMOS 2569 [GLONASS-K2]
1 57517U 23114A   26032.16892324  .00000012  00000+0  00000+0 0  9995
2 57517  65.2218  77.2085 0012325 289.3491  70.5969  2.13103948 19365
METEOR-M2 4             
1 59051U 24039A   26032.98533218  .00000029  00000+0  32667-4 0  9998
2 59051  98.6841 354.1104 0006679 192.7295 167.3716 14.22411185100044
GSAT0225 (GALILEO 29)   
1 59598U 24079A   26032.32056691 -.00000021  00000+0  00000+0 0  9995
2 59598  55.0299 104.8785 0002095 233.0448 127.8661  1.70474844 11003
GSAT0227 (GALILEO 30)   
1 59600U 24079C   26031.91599249 -.00000022  00000+0  00000+0 0  9995
2 59600  55.0249 104.8889 0001051 122.1563 237.9055  1.70474840 11044
GSAT0232 (GALILEO 32)   
1 61182U 24167A   26010.80494384  .00000067  00000+0  00000+0 0  9998
2 61182  55.2321 225.6317 0001771 188.3607   9.6826  1.70473658  8193
GSAT0226 (GALILEO 31)   
1 61183U 24167B   26032.33261543  .00000058  00000+0  00000+0 0  9990
2 61183  55.2264 225.0451 0001725 112.3399  90.4045  1.70473843  8532
